{
 "generated_at": "2026-07-08T07:29:27Z",
 "sources": [
  {
   "name": "CelesTrak",
   "url": "https://celestrak.org/NORAD/elements/",
   "license": "frei verfügbar; Attribution. Ursprünglich USSPACECOM/Space-Track."
  },
  {
   "name": "GCAT (J. McDowell, planet4589.org)",
   "url": "https://planet4589.org/space/gcat/",
   "license": "CC-BY 4.0"
  }
 ],
 "satellites": [
  {
   "norad": 46497,
   "name": "ICEYE-X6",
   "intl": "2020-068M",
   "group": "sar",
   "gcat": {
    "class": "B",
    "category": "IMG-R",
    "owner": "ICEYE",
    "state": "FI"
   },
   "omm": {
    "OBJECT_NAME": "ICEYE-X6",
    "OBJECT_ID": "2020-068M",
    "EPOCH": "2026-07-07T20:59:07.734048",
    "MEAN_MOTION": 15.0463564,
    "ECCENTRICITY": 0.0007779,
    "INCLINATION": 98.0975,
    "RA_OF_ASC_NODE": 183.5359,
    "ARG_OF_PERICENTER": 30.8521,
    "MEAN_ANOMALY": 329.316,
    "EPHEMERIS_TYPE": 0,
    "CLASSIFICATION_TYPE": "U",
    "NORAD_CAT_ID": 46497,
    "ELEMENT_SET_NO": 999,
    "REV_AT_EPOCH": 31634,
    "BSTAR": 0.00019404,
    "MEAN_MOTION_DOT": 0.0000266,
    "MEAN_MOTION_DDOT": 0
   }
  },
  {
   "norad": 66753,
   "name": "ICEYE-X60",
   "intl": "2025-276CR",
   "group": "sar",
   "gcat": {
    "class": "B",
    "category": "IMG-R",
    "owner": "ELKED",
    "state": "GR"
   },
   "omm": {
    "OBJECT_NAME": "ICEYE-X60",
    "OBJECT_ID": "2025-276CR",
    "EPOCH": "2026-07-06T17:22:32.054304",
    "MEAN_MOTION": 15.1117848,
    "ECCENTRICITY": 0.00009692,
    "INCLINATION": 97.4205,
    "RA_OF_ASC_NODE": 259.8267,
    "ARG_OF_PERICENTER": 312.9978,
    "MEAN_ANOMALY": 47.1171,
    "EPHEMERIS_TYPE": 0,
    "CLASSIFICATION_TYPE": "U",
    "NORAD_CAT_ID": 66753,
    "ELEMENT_SET_NO": 999,
    "REV_AT_EPOCH": 3331,
    "BSTAR": 0.00022321541,
    "MEAN_MOTION_DOT": 0.00003684,
    "MEAN_MOTION_DDOT": 0
   }
  },
  {
   "norad": 66754,
   "name": "ICEYE-X61",
   "intl": "2025-276CS",
   "group": "sar",
   "gcat": {
    "class": "B",
    "category": "IMG-R",
    "owner": "ARGUS/MON",
    "state": "PL"
   },
   "omm": {
    "OBJECT_NAME": "ICEYE-X61",
    "OBJECT_ID": "2025-276CS",
    "EPOCH": "2026-07-07T17:16:48.959904",
    "MEAN_MOTION": 15.18580724,
    "ECCENTRICITY": 0.0001598,
    "INCLINATION": 97.4191,
    "RA_OF_ASC_NODE": 261.8276,
    "ARG_OF_PERICENTER": 257.1566,
    "MEAN_ANOMALY": 102.949,
    "EPHEMERIS_TYPE": 0,
    "CLASSIFICATION_TYPE": "U",
    "NORAD_CAT_ID": 66754,
    "ELEMENT_SET_NO": 999,
    "REV_AT_EPOCH": 3353,
    "BSTAR": 0.00010117,
    "MEAN_MOTION_DOT": 0.00002024,
    "MEAN_MOTION_DDOT": 0
   }
  },
  {
   "norad": 66755,
   "name": "ICEYE-X62",
   "intl": "2025-276CT",
   "group": "sar",
   "gcat": {
    "class": "B",
    "category": "IMG-R",
    "owner": "ICEYE",
    "state": "FI"
   },
   "omm": {
    "OBJECT_NAME": "ICEYE-X62",
    "OBJECT_ID": "2025-276CT",
    "EPOCH": "2026-07-07T17:42:22.902912",
    "MEAN_MOTION": 15.10114108,
    "ECCENTRICITY": 0.0000886,
    "INCLINATION": 97.4193,
    "RA_OF_ASC_NODE": 260.3026,
    "ARG_OF_PERICENTER": 326.4774,
    "MEAN_ANOMALY": 33.64,
    "EPHEMERIS_TYPE": 0,
    "CLASSIFICATION_TYPE": "U",
    "NORAD_CAT_ID": 66755,
    "ELEMENT_SET_NO": 999,
    "REV_AT_EPOCH": 3343,
    "BSTAR": 0.00011502,
    "MEAN_MOTION_DOT": 0.00001813,
    "MEAN_MOTION_DDOT": 0
   }
  },
  {
   "norad": 67372,
   "name": "ICEYE-X63",
   "intl": "2026-004K",
   "group": "sar",
   "gcat": {
    "class": "B",
    "category": "IMG-R",
    "owner": "ICEYE",
    "state": "FI"
   },
   "omm": {
    "OBJECT_NAME": "ICEYE-X63",
    "OBJECT_ID": "2026-004K",
    "EPOCH": "2026-07-07T15:42:32.503104",
    "MEAN_MOTION": 14.88339435,
    "ECCENTRICITY": 0.0005762,
    "INCLINATION": 97.8009,
    "RA_OF_ASC_NODE": 186.9744,
    "ARG_OF_PERICENTER": 70.0683,
    "MEAN_ANOMALY": 290.1154,
    "EPHEMERIS_TYPE": 0,
    "CLASSIFICATION_TYPE": "U",
    "NORAD_CAT_ID": 67372,
    "ELEMENT_SET_NO": 999,
    "REV_AT_EPOCH": 2634,
    "BSTAR": 0.000092418,
    "MEAN_MOTION_DOT": 0.00000801,
    "MEAN_MOTION_DDOT": 0
   }
  },
  {
   "norad": 67373,
   "name": "ICEYE-X64",
   "intl": "2026-004L",
   "group": "sar",
   "gcat": {
    "class": "D",
    "category": "IMG-R",
    "owner": "PUOL",
    "state": "FI"
   },
   "omm": {
    "OBJECT_NAME": "ICEYE-X64",
    "OBJECT_ID": "2026-004L",
    "EPOCH": "2026-07-07T05:32:11.467392",
    "MEAN_MOTION": 14.87973564,
    "ECCENTRICITY": 0.00075629,
    "INCLINATION": 97.8021,
    "RA_OF_ASC_NODE": 186.4794,
    "ARG_OF_PERICENTER": 75.0491,
    "MEAN_ANOMALY": 285.1563,
    "EPHEMERIS_TYPE": 0,
    "CLASSIFICATION_TYPE": "U",
    "NORAD_CAT_ID": 67373,
    "ELEMENT_SET_NO": 999,
    "REV_AT_EPOCH": 2627,
    "BSTAR": 0.00013715468,
    "MEAN_MOTION_DOT": 0.00001204,
    "MEAN_MOTION_DDOT": 0
   }
  },
  {
   "norad": 66300,
   "name": "ICEYE-X65",
   "intl": "2025-248H",
   "group": "sar",
   "gcat": {
    "class": "B",
    "category": "IMG-R",
    "owner": "SP42",
    "state": "UAE"
   },
   "omm": {
    "OBJECT_NAME": "ICEYE-X65",
    "OBJECT_ID": "2025-248H",
    "EPOCH": "2026-07-06T22:59:53.237184",
    "MEAN_MOTION": 15.07893453,
    "ECCENTRICITY": 0.00046677,
    "INCLINATION": 45.4051,
    "RA_OF_ASC_NODE": 30.2151,
    "ARG_OF_PERICENTER": 152.2696,
    "MEAN_ANOMALY": 207.8436,
    "EPHEMERIS_TYPE": 0,
    "CLASSIFICATION_TYPE": "U",
    "NORAD_CAT_ID": 66300,
    "ELEMENT_SET_NO": 999,
    "REV_AT_EPOCH": 3850,
    "BSTAR": 0.00019511398,
    "MEAN_MOTION_DOT": 0.00002793,
    "MEAN_MOTION_DDOT": 0
   }
  },
  {
   "norad": 66301,
   "name": "ICEYE-X66",
   "intl": "2025-248J",
   "group": "sar",
   "gcat": {
    "class": "B",
    "category": "IMG-R",
    "owner": "SP42",
    "state": "UAE"
   },
   "omm": {
    "OBJECT_NAME": "ICEYE-X66",
    "OBJECT_ID": "2025-248J",
    "EPOCH": "2026-07-06T23:06:23.373792",
    "MEAN_MOTION": 15.09141129,
    "ECCENTRICITY": 0.00043058,
    "INCLINATION": 45.402,
    "RA_OF_ASC_NODE": 29.3585,
    "ARG_OF_PERICENTER": 147.7574,
    "MEAN_ANOMALY": 212.3572,
    "EPHEMERIS_TYPE": 0,
    "CLASSIFICATION_TYPE": "U",
    "NORAD_CAT_ID": 66301,
    "ELEMENT_SET_NO": 999,
    "REV_AT_EPOCH": 3849,
    "BSTAR": 0.00021261307,
    "MEAN_MOTION_DOT": 0.00003178,
    "MEAN_MOTION_DDOT": 0
   }
  },
  {
   "norad": 66302,
   "name": "ICEYE-X67",
   "intl": "2025-248K",
   "group": "sar",
   "gcat": {
    "class": "B",
    "category": "IMG-R",
    "owner": "SP42",
    "state": "UAE"
   },
   "omm": {
    "OBJECT_NAME": "ICEYE-X67",
    "OBJECT_ID": "2025-248K",
    "EPOCH": "2026-07-06T23:41:47.783040",
    "MEAN_MOTION": 15.09123634,
    "ECCENTRICITY": 0.00058626,
    "INCLINATION": 45.4057,
    "RA_OF_ASC_NODE": 28.8035,
    "ARG_OF_PERICENTER": 148.7145,
    "MEAN_ANOMALY": 211.4087,
    "EPHEMERIS_TYPE": 0,
    "CLASSIFICATION_TYPE": "U",
    "NORAD_CAT_ID": 66302,
    "ELEMENT_SET_NO": 999,
    "REV_AT_EPOCH": 3851,
    "BSTAR": 0.00017711795,
    "MEAN_MOTION_DOT": 0.00002603,
    "MEAN_MOTION_DDOT": 0
   }
  },
  {
   "norad": 46496,
   "name": "ICEYE-X7",
   "intl": "2020-068L",
   "group": "sar",
   "gcat": {
    "class": "B",
    "category": "IMG-R",
    "owner": "ICEYE",
    "state": "FI"
   },
   "omm": {
    "OBJECT_NAME": "ICEYE-X7",
    "OBJECT_ID": "2020-068L",
    "EPOCH": "2026-07-07T20:24:23.171616",
    "MEAN_MOTION": 15.31988741,
    "ECCENTRICITY": 0.0005386,
    "INCLINATION": 97.7502,
    "RA_OF_ASC_NODE": 156.3226,
    "ARG_OF_PERICENTER": 245.9499,
    "MEAN_ANOMALY": 114.1178,
    "EPHEMERIS_TYPE": 0,
    "CLASSIFICATION_TYPE": "U",
    "NORAD_CAT_ID": 46496,
    "ELEMENT_SET_NO": 999,
    "REV_AT_EPOCH": 31795,
    "BSTAR": 0.00025718,
    "MEAN_MOTION_DOT": 0.00007862,
    "MEAN_MOTION_DDOT": 0
   }
  }
 ]
}
